[{"OBJECT_NAME":"STARLINK-32806","OBJECT_ID":"2025-014A","EPOCH":"2026-03-09T22:34:10.643808","MEAN_MOTION":15.27609483,"ECCENTRICITY":0.00027213,"INCLINATION":43.0032,"RA_OF_ASC_NODE":153.1644,"ARG_OF_PERICENTER":274.2278,"MEAN_ANOMALY":85.8262,"EPHEMERIS_TYPE":0,"CLASSIFICATION_TYPE":"U","NORAD_CAT_ID":62735,"ELEMENT_SET_NO":999,"REV_AT_EPOCH":6329,"BSTAR":0.0010823859,"MEAN_MOTION_DOT":0.00029671,"MEAN_MOTION_DDOT":0},{"OBJECT_NAME":"OBJECT P","OBJECT_ID":"2025-155P","EPOCH":"2026-03-09T22:15:55.475424","MEAN_MOTION":15.2544775,"ECCENTRICITY":0.00080527,"INCLINATION":97.4496,"RA_OF_ASC_NODE":37.0295,"ARG_OF_PERICENTER":153.0691,"MEAN_ANOMALY":207.0966,"EPHEMERIS_TYPE":0,"CLASSIFICATION_TYPE":"U","NORAD_CAT_ID":64889,"ELEMENT_SET_NO":999,"REV_AT_EPOCH":6557,"BSTAR":0.00031377111,"MEAN_MOTION_DOT":7.871e-5,"MEAN_MOTION_DDOT":0}]
